NANOSATC-BR1            
1 40024U 14033Q   26068.98267556  .00020336  00000+0  74295-3 0  9994
2 40024  98.0845  92.7804 0004644 147.6715 212.4808 15.28136801638811
STARLINK-33628          
1 63067U 25035R   26068.27333708  .00023021  00000+0  84325-3 0  9994
2 63067  42.9927 149.6335 0002593 157.1394 202.9573 15.27586768 59666
